{
  "addresses": [
    {
      "id": 1,
      "name": "John",
      "mobile": "1234567890",
      "houseNumber": "123",
      "street": "Main St",
      "landmark": "Tower",
      "city": "Anytown",
      "zip": "90210"
    },
    {
      "name": "Jack",
      "mobile": "1234567890",
      "houseNumber": "123",
      "street": "Main St",
      "landmark": "Tower",
      "city": "Anytown",
      "zip": "90210",
      "id": 2
    },
    {
      "name": "Dave",
      "mobile": "1234567890",
      "houseNumber": "123",
      "street": "Main St",
      "landmark": "Tower",
      "city": "Anytown",
      "zip": "90210",
      "id": 3
    },
    {
      "name": "Claw",
      "mobile": "1234567890",
      "houseNumber": "123",
      "street": "Main St",
      "landmark": "Tower",
      "city": "Anytown",
      "zip": "90210",
      "id": 4
    },
    {
      "name": "Nero",
      "mobile": "1234567890",
      "houseNumber": "123",
      "street": "Main St",
      "landmark": "Tower",
      "city": "Anytown",
      "zip": "90210",
      "id": 5
    },
    {
      "name": "Dante",
      "mobile": "1234567890",
      "houseNumber": "123",
      "street": "Main St",
      "landmark": "Tower",
      "city": "Anytown",
      "zip": "90210",
      "id": 6
    },
    {
      "name": "Bruh",
      "mobile": "1234567890",
      "houseNumber": "123",
      "street": "Bruh",
      "landmark": "Uh..",
      "city": "NewYork",
      "zip": "123456",
      "id": 7
    },
    {
      "name": "Bob",
      "mobile": "1234567890",
      "houseNumber": "123",
      "street": "1234",
      "landmark": "1231",
      "city": "1231",
      "zip": "12311",
      "id": 8
    }
  ]
}